#dP2022 11 11  0  0  0.00000000      97 __u+U IGS14 FIT  IAC
## 2235 432000.00000000   900.00000000 59894 0.0000000000000
+  115   C06C07C08C09C10C11C12C13C14C16C19C20C21C22C23C24C25
+        C26C27C28C29C30C32C33C34C35C36C37C38C39C40C41C42C43
+        C44C45C46E01E02E03E04E05E08E09E10E11E12E13E14E15E18
+        E19E21E24E25E26E27E30E31E33E34E36G01G03G04G05G06G07
+        G08G09G10G11G12G13G14G15G16G17G18G19G20G21G22G23G24
+        G25G26G27G29G30G31G32J02J03J04R01R02R03R04R05R07R08
+        R09R11R12R13R14R15R17R18R19R20R21R22R24  0  0  0  0
++         7  8  8  7  7  7  7  7  6  7  6  6  6  6  6  6  6
++         5  5  5  6  6  6  5  6  6  6  6  7  6  7  6  6  6
++         6  6  6  5  4  4  4  4  4  5  4  4  4  4  4  4  4
++         4  4  5  5  4  4  4  4  4  4  4  3  3  3  3  3  3
++         3  3  3  3  3  3  3  3  3  4  3  4  3  4  4  3  3
++         3  4  3  3  3  4  4  9  9  9  7  6  6  6  6  6  6
++         6  6  6  7  6  6  6  6  7  7  6  7  6  0  0  0  0
%c M  cc GPS ccc cccc cccc cccc cccc ccccc ccccc ccccc ccccc
%c cc cc ccc ccc cccc cccc cccc cccc ccccc ccccc ccccc ccccc
%f  1.2500000  1.025000000  0.00000000000  0.000000000000000
%f  0.0000000  0.000000000  0.00000000000  0.000000000000000
%i    0    0    0    0      0      0      0      0         0
%i    0    0    0    0      0      0      0      0         0
/* INFORMATION & ANALYSIS CENTER (IAC)            FINAL DATA
/* S/V CLOCKS ARE ALIGNED TO GNSS TIME                      
/* G:C1WC2W R:C1PC2P E:C1XC5X C:C2IC6I J:C1CC2S             
/* PCV:IGS14_2233 OL/AL:FES2004  NONE     YN ORB:CoN CLK:CoN
*  2022 11 11 19 45  0.00000000
PC06  -9511.111521  23345.212873 -33824.852146      3.188632
PC07 -15304.996146  38446.925013   7719.973922    227.992790
PC08    174.792340  34271.572852  24694.540072    510.273177
PC09    905.764020  24669.752060 -33749.225676   -809.820895
PC10  -8522.259068  38517.465879  14484.844216     69.821043
PC11  26801.514738   4851.518782   6230.867050   -298.116917
PC12  13998.145123  13486.910601  20074.409025    297.380369
PC13   6718.693944  38156.556388  17122.218995    130.775889
PC14  16843.690979   1283.429082 -22211.105582    644.591221
PC16 -15284.748863  21234.184436 -32941.246074    118.199002
PC19 -19304.413068   8966.843255  18056.285109   -915.602665
PC20 -12589.059624  -9641.831455  22967.653666    840.163696
PC21  -2246.106307  23798.613065 -14380.338302   -800.698152
PC22 -15201.203776  23263.263584   2431.367949   -799.271756
PC23   8248.226908 -16180.286003  21188.276781   -878.664947
PC24  17777.731443  20265.873937   7261.980532   -820.642888
PC25  18417.774705   1335.421428  20920.472097     23.209997
PC26   8220.828803  25267.696860  -8603.613729    -34.516759
PC27  -4386.397997 -15744.638292 -22634.912462     49.880140
PC28  15623.285357 -13083.875659 -19061.034961     34.851912
PC29 -27493.412078   3252.851862   3495.269921     39.190093
PC30 -22317.343215  -9139.459246 -14058.534270      0.926348
PC32   2132.139462 -23870.110380  14306.921584   -722.107770
PC33  19260.594784  -8985.440433 -18092.817262   -914.011374
PC34  23087.275835   8546.734420  13117.916109     37.123017
PC35 -16670.029498  13131.092271  18132.725463     83.757155
PC36 -18557.386937  -2407.492534 -20676.422764   -848.686793
PC37  -6586.014351 -25280.852649   9783.046650   -806.893913
PC38  -6359.253803  30223.546512  28812.487978     37.462038
PC39 -19326.966509  20734.587772 -31268.594058     -0.832208
PC40 -22833.818920  34947.635683   5103.011455     -7.892181
PC41  15376.401695 -23093.509290  -2939.875428   -265.849424
PC42  11882.909460  10806.479172 -22783.654735   -645.212080
PC43  27630.498261  -2692.129970  -2751.710643     24.465787
PC44   4680.808293  15732.602811  22557.576392    110.752016
PC45  -7846.082252  16462.813200 -21130.131242    -21.181620
PC46 -18328.571733 -19015.272157  -8944.909920    -12.344391
PE01  14696.570684 -14397.080104  21282.692602   -564.121993
PE02 -14618.360783  14658.246216 -21164.176164      2.002015
PE03 -25292.105882  15326.914942  -1163.146602   -618.997030
PE04  11421.029497 -20818.459922  17668.668331  -1156.451852
PE05 -24613.929669    681.292395  16423.717782   -125.609597
PE08 -11406.624509  20760.210914 -17753.339112   -630.727458
PE09  -9368.805447 -14102.800368  24273.384316   -725.689752
PE10  -9505.894610 -20052.276230 -19584.298827   -490.130320
PE11 -19023.333457 -19625.491653 -11374.096234   1372.768777
PE12    782.263752 -17463.636537 -23885.961291   -271.737823
PE13  18394.589042  19737.506327  12186.359919    430.615749
PE14 -19422.800761  12821.635540   5706.134539     53.862599
PE15  -1015.150582  17284.401914  24017.530104    708.081469
PE18  19519.973637 -20873.298517 -15134.313846   -754.555003
PE19  26208.280881 -13678.880123  -1416.789144  -4022.620564
PE21  16259.811186   6379.704103  23901.568063   -494.067521
PE24  -8081.494393 -25681.870020 -12279.383094   -941.969363
PE25 -16207.857258  -6716.269084 -23830.334006   -592.441390
PE26  26840.926403  10017.670725  -7459.328789  -1833.763566
PE27   8700.418108  25096.064319  13085.113610   -437.248573
PE30  -4533.147448  28628.795874  -6057.372418   -990.554579
PE31   3918.721644 -28846.076647   5346.489680   -507.937095
PE33  19702.960047  -4638.643817 -21590.517545   -455.455120
PE34 -19553.672665   4828.556776  21683.698324    -14.111509
PE36 -26823.498008 -10588.847645   6678.064516   -459.400043
PG01 -22390.264174 -14415.659189   2193.555087    253.285150
PG03 -12277.805487 -12726.389930  19729.436930   -372.142127
PG04 -20446.863938  -3868.686284  16566.529490    -88.143901
PG05   6945.650338  22976.079575 -11410.905970   -103.919879
PG06  -5626.179181  13807.211986  22038.617335    515.743600
PG07 -21946.243432  -2696.814329 -14639.453190    288.591880
PG08 -11674.687494 -10846.973751 -21340.679806    -93.335122
PG09 -24716.611586   6341.196019   7374.011253   -270.125689
PG10  11313.643194 -19019.994160 -14292.520744    -11.475369
PG11   6043.945968  19602.974136  16897.957562    -38.249171
PG12  11189.356871  14145.088550  19264.832879   -303.087343
PG13   2755.722251  14939.106477 -21952.684508    422.826160
PG14 -13235.107849  16930.657915 -15526.318912    -84.296954
PG15  13288.547101  10159.896037 -21121.189844    -13.237847
PG16   -698.932349 -25321.120601  -7427.879522   -526.887190
PG17 -22181.904684  13392.881602   6445.313386    677.035453
PG18  20625.823548    890.822014 -16791.415958    -18.383929
PG19 -14559.137974  15838.908075  15169.808984    236.057468
PG20    586.438303  26607.030255   1977.109718    470.934288
PG21 -20436.251169 -16448.749802  -5602.717320    156.261235
PG22  11171.730537 -17041.887292  17364.180513    362.714809
PG23  14548.785145  -8440.387644 -20527.878024     -1.065643
PG24  22071.347619  15025.769452  -2538.028021     63.092368
PG25  15075.579445   2055.058961  21479.421952    391.638573
PG26   4040.779343 -25644.794491   4599.143234    235.492118
PG27    767.600609 -16317.375106 -21078.082570    180.145551
PG29  24861.606910  -2943.290364   8949.863016   -566.498674
PG30 -14469.941028   8303.822247 -20622.113711   -536.782058
PG31   5048.212972 -14897.864895  21186.129890   -199.862140
PG32  19523.524721 -15841.543065   8394.071960   -292.987921
PJ02 -20553.779179  30525.419189 -15834.203005     -0.106664
PJ03 -28913.951774  23259.747040  25162.963244     -4.455892
PJ04 -31198.395921  27609.148369  12729.363664    112.875638
PR01  -9903.729787  20742.162411 -11061.792969     17.720600
PR02   4378.794536  11127.260325 -22505.089414    -23.289779
PR03  15761.455005  -4290.287277 -19530.831937     67.123850
PR04  18123.218520 -16966.621952  -5800.154800    164.551975
PR05  10663.563424 -20312.464352  11123.045700    102.759371
PR07 -16151.558673   5008.289536  19150.677382     44.152086
PR08 -18090.568697  17082.911044   5751.790564    -68.032035
PR09 -11778.164685 -21746.279909  -6387.131000     87.052845
PR11  -7994.902316   8976.860961 -22485.730629     21.120133
PR12   2650.012117  22780.367816 -11162.972202     22.777074
PR13  11005.617132  22489.143251   4874.996119    -28.760489
PR14  13428.870841   8269.360481  20055.672021     24.132904
PR15   7708.813542  -9963.471549  22199.929125     92.789491
PR17  25123.348760   4539.955543   -367.340568    577.233207
PR18  19570.082441  -3452.400786 -15945.414220     51.523728
PR19   5558.825956  -9259.736296 -23103.946654   -210.609935
PR20 -15837.488365 -11148.504100 -16605.634124    -81.950411
PR21 -25103.978517  -3915.643880   2065.015149   -348.915029
PR22 -19255.767641   3386.141716  16418.466456     15.731495
PR24  16615.826012  10910.560872  16021.174817    125.906459
EOF
